[{"OBJECT_NAME":"BRISAT","OBJECT_ID":"2016-039A","EPOCH":"2026-03-04T10:17:38.615424","MEAN_MOTION":1.00268538,"ECCENTRICITY":0.00021858,"INCLINATION":0.0208,"RA_OF_ASC_NODE":150.6767,"ARG_OF_PERICENTER":195.3165,"MEAN_ANOMALY":121.0961,"EPHEMERIS_TYPE":0,"CLASSIFICATION_TYPE":"U","NORAD_CAT_ID":41591,"ELEMENT_SET_NO":999,"REV_AT_EPOCH":3556,"BSTAR":0,"MEAN_MOTION_DOT":0,"MEAN_MOTION_DDOT":0},{"OBJECT_NAME":"ECHOSTAR 18","OBJECT_ID":"2016-039B","EPOCH":"2026-03-04T03:36:38.720160","MEAN_MOTION":1.00271454,"ECCENTRICITY":0.00016331,"INCLINATION":0.0179,"RA_OF_ASC_NODE":126.5261,"ARG_OF_PERICENTER":216.672,"MEAN_ANOMALY":171.4854,"EPHEMERIS_TYPE":0,"CLASSIFICATION_TYPE":"U","NORAD_CAT_ID":41592,"ELEMENT_SET_NO":999,"REV_AT_EPOCH":3557,"BSTAR":0,"MEAN_MOTION_DOT":-2.94e-6,"MEAN_MOTION_DDOT":0},{"OBJECT_NAME":"TIANTONG-1 1","OBJECT_ID":"2016-048A","EPOCH":"2026-03-05T00:47:11.291712","MEAN_MOTION":1.00272109,"ECCENTRICITY":0.00056903,"INCLINATION":3.6516,"RA_OF_ASC_NODE":42.4406,"ARG_OF_PERICENTER":355.0272,"MEAN_ANOMALY":238.5163,"EPHEMERIS_TYPE":0,"CLASSIFICATION_TYPE":"U","NORAD_CAT_ID":41725,"ELEMENT_SET_NO":999,"REV_AT_EPOCH":3522,"BSTAR":0,"MEAN_MOTION_DOT":-3.25e-6,"MEAN_MOTION_DDOT":0},{"OBJECT_NAME":"JCSAT-16","OBJECT_ID":"2016-050A","EPOCH":"2026-03-05T06:07:25.585536","MEAN_MOTION":1.00271134,"ECCENTRICITY":0.00011212,"INCLINATION":0.0126,"RA_OF_ASC_NODE":134.2703,"ARG_OF_PERICENTER":221.2786,"MEAN_ANOMALY":43.2299,"EPHEMERIS_TYPE":0,"CLASSIFICATION_TYPE":"U","NORAD_CAT_ID":41729,"ELEMENT_SET_NO":999,"REV_AT_EPOCH":3502,"BSTAR":0,"MEAN_MOTION_DOT":-2.6e-6,"MEAN_MOTION_DDOT":0},{"OBJECT_NAME":"USA 270","OBJECT_ID":"2016-052A","EPOCH":"2026-02-20T16:59:52.340352","MEAN_MOTION":1.00327485,"ECCENTRICITY":0.0003302,"INCLINATION":3.8986,"RA_OF_ASC_NODE":78.691,"ARG_OF_PERICENTER":288.5278,"MEAN_ANOMALY":204.8551,"EPHEMERIS_TYPE":0,"CLASSIFICATION_TYPE":"U","NORAD_CAT_ID":41744,"ELEMENT_SET_NO":999,"REV_AT_EPOCH":2696,"BSTAR":0,"MEAN_MOTION_DOT":-3.6e-7,"MEAN_MOTION_DDOT":0},{"OBJECT_NAME":"USA 271","OBJECT_ID":"2016-052B","EPOCH":"2026-02-20T19:31:41.902752","MEAN_MOTION":1.00119522,"ECCENTRICITY":0.0001639,"INCLINATION":3.8712,"RA_OF_ASC_NODE":78.7558,"ARG_OF_PERICENTER":331.9763,"MEAN_ANOMALY":161.1961,"EPHEMERIS_TYPE":0,"CLASSIFICATION_TYPE":"U","NORAD_CAT_ID":41745,"ELEMENT_SET_NO":999,"REV_AT_EPOCH":2675,"BSTAR":0,"MEAN_MOTION_DOT":-3.46e-6,"MEAN_MOTION_DDOT":0},{"OBJECT_NAME":"INTELSAT 36 (IS-36)","OBJECT_ID":"2016-053A","EPOCH":"2026-03-05T05:47:38.745024","MEAN_MOTION":1.00270816,"ECCENTRICITY":0.00011997,"INCLINATION":0.0155,"RA_OF_ASC_NODE":86.6285,"ARG_OF_PERICENTER":239.7885,"MEAN_ANOMALY":351.9528,"EPHEMERIS_TYPE":0,"CLASSIFICATION_TYPE":"U","NORAD_CAT_ID":41747,"ELEMENT_SET_NO":999,"REV_AT_EPOCH":3491,"BSTAR":0,"MEAN_MOTION_DOT":-3.2e-7,"MEAN_MOTION_DDOT":0},{"OBJECT_NAME":"INTELSAT 33E (IS-33E)","OBJECT_ID":"2016-053B","EPOCH":"2026-03-05T04:13:38.615232","MEAN_MOTION":1.00165173,"ECCENTRICITY":0.00244103,"INCLINATION":1.3059,"RA_OF_ASC_NODE":85.7851,"ARG_OF_PERICENTER":189.8737,"MEAN_ANOMALY":37.7872,"EPHEMERIS_TYPE":0,"CLASSIFICATION_TYPE":"U","NORAD_CAT_ID":41748,"ELEMENT_SET_NO":999,"REV_AT_EPOCH":3520,"BSTAR":0,"MEAN_MOTION_DOT":-1.88e-6,"MEAN_MOTION_DDOT":0},{"OBJECT_NAME":"INSAT-3DR","OBJECT_ID":"2016-054A","EPOCH":"2026-03-05T01:31:11.726688","MEAN_MOTION":1.00272506,"ECCENTRICITY":0.0013197,"INCLINATION":0.0489,"RA_OF_ASC_NODE":96.2317,"ARG_OF_PERICENTER":185.6547,"MEAN_ANOMALY":337.6931,"EPHEMERIS_TYPE":0,"CLASSIFICATION_TYPE":"U","NORAD_CAT_ID":41752,"ELEMENT_SET_NO":999,"REV_AT_EPOCH":3477,"BSTAR":0,"MEAN_MOTION_DOT":-8.6e-7,"MEAN_MOTION_DDOT":0},{"OBJECT_NAME":"GSAT-18","OBJECT_ID":"2016-060A","EPOCH":"2026-03-05T01:31:11.726688","MEAN_MOTION":1.00271702,"ECCENTRICITY":0.000331,"INCLINATION":0.0122,"RA_OF_ASC_NODE":173.5149,"ARG_OF_PERICENTER":225.8264,"MEAN_ANOMALY":220.2259,"EPHEMERIS_TYPE":0,"CLASSIFICATION_TYPE":"U","NORAD_CAT_ID":41793,"ELEMENT_SET_NO":999,"REV_AT_EPOCH":3448,"BSTAR":0,"MEAN_MOTION_DOT":-8.6e-7,"MEAN_MOTION_DDOT":0},{"OBJECT_NAME":"SKY MUSTER 2 (NBN1B)","OBJECT_ID":"2016-060B","EPOCH":"2026-03-05T05:58:38.637984","MEAN_MOTION":1.00267969,"ECCENTRICITY":0.00016143,"INCLINATION":0.0204,"RA_OF_ASC_NODE":163.2811,"ARG_OF_PERICENTER":193.8987,"MEAN_ANOMALY":40.2723,"EPHEMERIS_TYPE":0,"CLASSIFICATION_TYPE":"U","NORAD_CAT_ID":41794,"ELEMENT_SET_NO":999,"REV_AT_EPOCH":3447,"BSTAR":0,"MEAN_MOTION_DOT":0,"MEAN_MOTION_DDOT":0},{"OBJECT_NAME":"HIMAWARI-9","OBJECT_ID":"2016-064A","EPOCH":"2026-03-05T05:58:38.637984","MEAN_MOTION":1.00272099,"ECCENTRICITY":0.00011996,"INCLINATION":0.0137,"RA_OF_ASC_NODE":174.7942,"ARG_OF_PERICENTER":197.6115,"MEAN_ANOMALY":21.0158,"EPHEMERIS_TYPE":0,"CLASSIFICATION_TYPE":"U","NORAD_CAT_ID":41836,"ELEMENT_SET_NO":999,"REV_AT_EPOCH":3416,"BSTAR":0,"MEAN_MOTION_DOT":-2.83e-6,"MEAN_MOTION_DDOT":0},{"OBJECT_NAME":"SHIJIAN-17 (SJ-17)","OBJECT_ID":"2016-065A","EPOCH":"2026-03-05T00:18:11.435040","MEAN_MOTION":0.99861605,"ECCENTRICITY":9.81e-5,"INCLINATION":5.4881,"RA_OF_ASC_NODE":73.8585,"ARG_OF_PERICENTER":308.4486,"MEAN_ANOMALY":174.4998,"EPHEMERIS_TYPE":0,"CLASSIFICATION_TYPE":"U","NORAD_CAT_ID":41838,"ELEMENT_SET_NO":999,"REV_AT_EPOCH":3416,"BSTAR":0,"MEAN_MOTION_DOT":1.05e-6,"MEAN_MOTION_DDOT":0},{"OBJECT_NAME":"GOES 16","OBJECT_ID":"2016-071A","EPOCH":"2026-03-05T06:39:15.034176","MEAN_MOTION":1.00271815,"ECCENTRICITY":0.00024644,"INCLINATION":0.1401,"RA_OF_ASC_NODE":89.6705,"ARG_OF_PERICENTER":221.2947,"MEAN_ANOMALY":207.1543,"EPHEMERIS_TYPE":0,"CLASSIFICATION_TYPE":"U","NORAD_CAT_ID":41866,"ELEMENT_SET_NO":999,"REV_AT_EPOCH":3406,"BSTAR":0,"MEAN_MOTION_DOT":-9.9e-7,"MEAN_MOTION_DDOT":0},{"OBJECT_NAME":"TIANLIAN 1-04","OBJECT_ID":"2016-072A","EPOCH":"2026-03-05T06:16:39.699840","MEAN_MOTION":1.0027341,"ECCENTRICITY":0.00407455,"INCLINATION":0.5984,"RA_OF_ASC_NODE":83.5536,"ARG_OF_PERICENTER":95.531,"MEAN_ANOMALY":254.8206,"EPHEMERIS_TYPE":0,"CLASSIFICATION_TYPE":"U","NORAD_CAT_ID":41869,"ELEMENT_SET_NO":999,"REV_AT_EPOCH":3425,"BSTAR":0,"MEAN_MOTION_DOT":2.2e-7,"MEAN_MOTION_DDOT":0},{"OBJECT_NAME":"WGS F8 (USA 272)","OBJECT_ID":"2016-075A","EPOCH":"2026-03-04T10:17:38.615424","MEAN_MOTION":1.00270672,"ECCENTRICITY":2.668e-5,"INCLINATION":0.0083,"RA_OF_ASC_NODE":162.7764,"ARG_OF_PERICENTER":281.908,"MEAN_ANOMALY":21.698,"EPHEMERIS_TYPE":0,"CLASSIFICATION_TYPE":"U","NORAD_CAT_ID":41879,"ELEMENT_SET_NO":999,"REV_AT_EPOCH":3377,"BSTAR":0,"MEAN_MOTION_DOT":-2.14e-6,"MEAN_MOTION_DDOT":0},{"OBJECT_NAME":"FENGYUN 4A","OBJECT_ID":"2016-077A","EPOCH":"2026-03-05T06:01:41.137248","MEAN_MOTION":1.00278774,"ECCENTRICITY":0.00074019,"INCLINATION":2.0582,"RA_OF_ASC_NODE":81.4022,"ARG_OF_PERICENTER":135.6917,"MEAN_ANOMALY":159.8997,"EPHEMERIS_TYPE":0,"CLASSIFICATION_TYPE":"U","NORAD_CAT_ID":41882,"ELEMENT_SET_NO":999,"REV_AT_EPOCH":3388,"BSTAR":0,"MEAN_MOTION_DOT":-3.65e-6,"MEAN_MOTION_DDOT":0}]
